BLUEBON                 
1 62688U 25009CH  26068.70316231  .00010452  00000+0  37313-3 0  9992
2 62688  97.4017 152.2033 0001193  43.3900 316.7434 15.29047253 63767
STARLINK-36518          
1 67453U 26008J   26068.44940321  .00041449  00000+0  15077-2 0  9993
2 67453  43.0009 206.7192 0002251 268.7225  91.3369 15.27570262  9537
